MEAN_MOTION;ECCENTRICITY;INCLINATION;RA_OF_ASC_NODE;ARG_OF_PERICENTER;MEAN_ANOMALY;BSTAR;MEAN_MOTION_DOT;MEAN_MOTION_DDOT;TYPE
14.56345912;0.0006999;98.5791;239.8891;107.8692;252.3269;3.5607E-5;1.09E-6;0;Amateur
14.56345922;0.0006997;98.5791;239.9598;107.6735;252.5226;3.5494E-5;1.09E-6;0;Amateur
14.56346176;0.0007017;98.5792;240.8785;105.4243;254.7729;3.5578E-5;1.09E-6;0;Amateur
14.56346204;0.000701;98.5793;241.0198;105.0237;255.1736;3.5526E-5;1.09E-6;0;Amateur
14.56346496;0.0007019;98.5794;241.9385;102.8084;257.3898;3.5262E-5;1.08E-6;0;Amateur
14.56346627;0.0007024;98.5795;242.4331;101.6179;258.5807;3.4862E-5;1.06E-6;0;Amateur
14.56346747;0.0007034;98.5796;242.9278;100.3488;259.8502;3.3576E-5;1.0E-6;0;Amateur
14.56346898;0.0007033;98.5797;243.4932;98.9208;261.2785;3.3101E-5;9.8E-7;0;Amateur
14.56347323;0.0007042;98.5799;244.9774;95.1322;265.0679;3.0598E-5;8.7E-7;0;Amateur
14.56347323;0.0007042;98.5799;244.9774;95.1322;265.0679;3.0598E-5;8.7E-7;0;Amateur
14.56347591;0.0007045;98.5801;246.0374;92.5276;267.6728;2.9718E-5;8.3E-7;0;Amateur
14.56347607;0.0007045;98.5801;246.1081;92.3393;267.861;2.966E-5;8.3E-7;0;Amateur
14.5634797;0.0007039;98.5802;247.0975;89.8872;270.3132;3.1865E-5;9.2E-7;0;Amateur
14.56347986;0.0007036;98.5802;247.1682;89.7058;270.4945;3.1866E-5;9.2E-7;0;Amateur
14.56348199;0.0007019;98.5804;248.0869;87.4116;272.7884;3.0955E-5;8.8E-7;0;Amateur
14.56348275;0.0007017;98.5804;248.3697;86.5838;273.6161;3.1567E-5;9.1E-7;0;Amateur
14.56348447;0.0007006;98.5806;249.0058;85.0549;275.1448;3.1512E-5;9.1E-7;0;Amateur
14.56348556;0.0007002;98.5806;249.4299;83.9727;276.2268;3.1982E-5;9.3E-7;0;Amateur
14.56348808;0.0006995;98.5808;250.1366;82.2357;277.9634;3.4497E-5;1.04E-6;0;Amateur
14.56348914;0.0006981;98.5809;250.7727;80.6143;279.5843;3.338E-5;9.9E-7;0;Amateur
14.56348927;0.000698;98.5809;250.9141;80.2793;279.9192;3.2777E-5;9.6E-7;0;Amateur
14.5634911;0.0006963;98.5811;251.8329;78.0123;282.1854;3.0833E-5;8.8E-7;0;Amateur
14.56349189;0.0006959;98.5812;252.1863;77.1495;283.0479;3.071E-5;8.7E-7;0;Amateur
14.56349313;0.0006943;98.5812;252.8224;75.5441;284.6526;3.0153E-5;8.5E-7;0;Amateur
14.56349385;0.0006942;98.5813;253.0345;75.0281;285.1684;3.0976E-5;8.9E-7;0;Amateur
14.56349403;0.000694;98.5813;253.1052;74.8481;285.3483;3.0892E-5;8.8E-7;0;Amateur
14.56349612;0.0006918;98.5814;253.8826;72.8661;287.3293;3.0715E-5;8.7E-7;0;Amateur
14.56349761;0.000691;98.5815;254.3068;71.809;288.3858;3.1711E-5;9.2E-7;0;Amateur
14.56350101;0.0006886;98.5816;255.2963;69.3514;290.8421;3.4052E-5;1.02E-6;0;Amateur
14.56350267;0.0006869;98.5816;255.8618;67.901;292.2915;3.4162E-5;1.03E-6;0;Amateur
14.56350467;0.0006863;98.5817;256.3565;66.6859;293.506;3.5446E-5;1.08E-6;0;Amateur
14.56350805;0.0006838;98.5818;257.3461;64.2077;295.9824;3.7012E-5;1.15E-6;0;Amateur
14.563508;0.0006833;98.5818;257.4168;64.0102;296.1798;3.6322E-5;1.12E-6;0;Amateur
14.56351039;0.0006812;98.5819;258.4063;61.5607;298.6276;3.3913E-5;1.02E-6;0;Amateur
14.56351157;0.0006786;98.5819;258.9011;60.2153;299.9718;3.374E-5;1.01E-6;0;Amateur
14.56351271;0.0006771;98.5821;259.4666;58.7853;301.4006;3.2232E-5;9.4E-7;0;Amateur
14.56351572;0.0006735;98.5822;260.4561;56.2634;303.9203;3.2134E-5;9.4E-7;0;Amateur
14.56351582;0.0006732;98.5822;260.5268;56.0758;304.1078;3.1849E-5;9.2E-7;0;Amateur
14.56351688;0.0006715;98.5823;260.9509;54.9492;305.2334;3.1539E-5;9.1E-7;0;Amateur
14.56351865;0.0006692;98.5824;261.5164;53.5359;306.6454;3.1716E-5;9.2E-7;0;Amateur
14.56351992;0.0006668;98.5824;262.0112;52.2327;307.9473;3.172E-5;9.2E-7;0;Amateur
14.56352088;0.000666;98.5825;262.294;51.513;308.6664;3.2023E-5;9.3E-7;0;Amateur
14.5635245;0.0006597;98.5828;263.5663;48.2515;311.9245;3.0974E-5;8.8E-7;0;Amateur
14.56352521;0.0006592;98.5828;263.7784;47.6318;312.5436;3.1895E-5;9.3E-7;0;Amateur
14.56352809;0.0006549;98.5829;264.556;45.557;314.6161;3.338E-5;9.9E-7;0;Amateur
14.56353066;0.0006517;98.583;265.1215;44.1634;316.0082;3.6275E-5;1.12E-6;0;Amateur
14.56353296;0.0006488;98.5831;265.6164;42.8297;317.3405;3.8008E-5;1.2E-6;0;Amateur
14.56353678;0.0006434;98.5833;266.6061;40.1788;319.9884;4.096E-5;1.33E-6;0;Amateur
14.56353721;0.0006428;98.5833;266.7475;39.7785;320.3882;4.1141E-5;1.34E-6;0;Amateur
14.56354071;0.0006381;98.5835;267.6665;37.3702;322.7937;4.2497E-5;1.4E-6;0;Amateur
14.56354228;0.0006354;98.5835;268.1614;36.021;324.1414;4.2755E-5;1.41E-6;0;Amateur
14.56354305;0.0006345;98.5836;268.4442;35.3367;324.8249;4.2626E-5;1.4E-6;0;Amateur
14.5635462;0.00063;98.5837;269.2218;33.1816;326.9774;4.3888E-5;1.46E-6;0;Amateur
14.56354761;0.0006276;98.5838;269.7168;31.8934;328.2642;4.1944E-5;1.37E-6;0;Amateur
14.56355033;0.000621;98.5839;270.7772;29.0389;331.1152;3.8565E-5;1.22E-6;0;Amateur
14.56355086;0.0006202;98.5839;270.9186;28.5928;331.5607;3.8928E-5;1.24E-6;0;Amateur
14.56355349;0.0006152;98.584;271.767;26.2067;333.944;3.6917E-5;1.15E-6;0;Amateur
14.56355547;0.0006119;98.584;272.3325;24.5057;335.643;3.6255E-5;1.12E-6;0;Amateur
14.56355718;0.0006089;98.5841;272.8274;23.1422;337.0048;3.5511E-5;1.09E-6;0;Amateur
14.56356072;0.0006035;98.5842;273.8172;20.3966;339.747;3.5845E-5;1.1E-6;0;Amateur
14.56356317;0.0005992;98.5843;274.5951;18.2046;341.9364;3.5178E-5;1.07E-6;0;Amateur
14.56356442;0.0005972;98.5844;274.9486;17.2165;342.9233;3.482E-5;1.06E-6;0;Amateur
14.5635656;0.0005946;98.5844;275.3728;15.9919;344.1465;3.455E-5;1.04E-6;0;Amateur
14.56356761;0.0005904;98.5845;276.0798;13.9648;346.1712;3.4166E-5;1.03E-6;0;Amateur
14.56357014;0.0005847;98.5846;276.9283;11.5065;348.6264;3.2994E-5;9.7E-7;0;Amateur
14.56357046;0.0005839;98.5846;277.1404;10.8983;349.234;3.2753E-5;9.6E-7;0;Amateur
14.56357264;0.0005783;98.5848;277.9182;8.6305;351.4991;3.2222E-5;9.4E-7;0;Amateur
14.56357377;0.0005747;98.5848;278.4838;6.9521;353.1754;3.1341E-5;9.0E-7;0;Amateur
14.56357534;0.0005712;98.5849;278.9788;5.547;354.5789;3.1465E-5;9.1E-7;0;Amateur
14.56357612;0.0005684;98.585;279.4737;4.0528;356.0714;3.036E-5;8.6E-7;0;Amateur
14.56357694;0.000566;98.5851;279.8272;3.0447;357.0783;3.0315E-5;8.6E-7;0;Amateur
14.56357764;0.0005647;98.5851;280.0394;2.3781;357.7442;3.0569E-5;8.7E-7;0;Amateur
14.56357901;0.0005615;98.5852;280.5343;0.8421;359.2785;3.162E-5;9.1E-7;0;Amateur
14.56357944;0.0005595;98.5852;280.8171;0.0318;0.0879;3.0912E-5;8.8E-7;0;Amateur
14.5635805;0.0005573;98.5853;281.1707;358.9637;1.1548;3.1156E-5;8.9E-7;0;Amateur
14.56358183;0.0005547;98.5853;281.5949;357.6065;2.5105;3.1835E-5;9.2E-7;0;Amateur
14.56358324;0.0005515;98.5854;282.0899;356.1256;3.9897;3.2016E-5;9.3E-7;0;Amateur
14.56358414;0.0005506;98.5855;282.302;355.4125;4.7021;3.3533E-5;1.0E-6;0;Amateur
14.56358686;0.0005455;98.5856;283.0798;353.0416;7.0705;3.5168E-5;1.07E-6;0;Amateur
14.5635883;0.0005422;98.5856;283.6455;351.2768;8.8333;3.4987E-5;1.06E-6;0;Amateur
14.56358989;0.0005389;98.5857;284.1405;349.7764;10.3323;3.5153E-5;1.07E-6;0;Amateur
14.56359233;0.000534;98.5858;284.9183;347.3165;12.7897;3.6522E-5;1.13E-6;0;Amateur
14.56359317;0.0005325;98.5858;285.1304;346.6351;13.4704;3.6895E-5;1.15E-6;0;Amateur
14.56359632;0.0005263;98.5859;286.1911;343.2741;16.8282;3.6224E-5;1.12E-6;0;Amateur
14.56359666;0.0005255;98.5859;286.4032;342.6203;17.4813;3.584E-5;1.1E-6;0;Amateur
14.56359829;0.0005215;98.5859;287.0397;340.5606;19.5391;3.4913E-5;1.06E-6;0;Amateur
14.56360031;0.0005177;98.5859;287.7468;338.2211;21.8765;3.4443E-5;1.04E-6;0;Amateur
14.56360189;0.0005143;98.586;288.2417;336.6466;23.4497;3.3765E-5;1.01E-6;0;Amateur
14.56360355;0.0005116;98.586;288.8074;334.7739;25.3207;3.3685E-5;1.0E-6;0;Amateur
14.56360373;0.0005102;98.586;289.0196;334.1036;25.9905;3.2487E-5;9.5E-7;0;Amateur
14.56360555;0.0005062;98.5861;289.7974;331.463;28.6289;3.0787E-5;8.8E-7;0;Amateur
14.56360623;0.0005045;98.5862;290.0803;330.509;29.5822;3.0364E-5;8.6E-7;0;Amateur
14.563607;0.0005033;98.5862;290.2924;329.806;30.2846;3.0183E-5;8.5E-7;0;Amateur
14.56360865;0.0005013;98.5862;290.7874;328.0458;32.0434;3.0706E-5;8.7E-7;0;Amateur
14.56360977;0.0004993;98.5863;291.141;326.9574;33.131;3.071E-5;8.7E-7;0;Amateur
14.56361084;0.0004981;98.5863;291.3531;326.2274;33.8605;3.168E-5;9.2E-7;0;Amateur
14.56361407;0.0004932;98.5865;292.3432;322.7672;37.3182;3.2603E-5;9.6E-7;0;Amateur
14.56361476;0.0004924;98.5865;292.5553;322.047;38.0379;3.3097E-5;9.8E-7;0;Amateur
14.56361645;0.0004895;98.5866;293.121;320.0394;40.0442;3.2708E-5;9.6E-7;0;Amateur
14.56361932;0.000486;98.5867;293.8989;317.3481;42.7338;3.46E-5;1.05E-6;0;Amateur
14.56362042;0.0004835;98.5868;294.394;315.5628;44.5181;3.3529E-5;1.0E-6;0;Amateur
14.56362202;0.0004813;98.5868;294.9597;313.5509;46.5288;3.3864E-5;1.01E-6;0;Amateur
14.56362576;0.0004758;98.587;296.2327;309.0211;51.0562;3.4718E-5;1.05E-6;0;Amateur
14.56362916;0.0004714;98.5872;297.5057;304.3397;55.7354;3.3775E-5;1.01E-6;0;Amateur
14.56362916;0.0004714;98.5872;297.5057;304.3397;55.7354;3.3775E-5;1.01E-6;0;Amateur
14.56363048;0.0004699;98.5872;298.0007;302.5609;57.5133;3.3732E-5;1.01E-6;0;Amateur
14.56363343;0.0004678;98.5873;298.5665;300.5162;59.5572;3.8111E-5;1.2E-6;0;Amateur
14.56363455;0.0004672;98.5873;298.7786;299.7759;60.2973;4.0487E-5;1.31E-6;0;Amateur
14.56363551;0.0004663;98.5873;299.0615;298.6548;61.418;4.046E-5;1.31E-6;0;Amateur
14.5636364;0.0004647;98.5874;299.5565;296.8056;63.2665;3.7271E-5;1.16E-6;0;Amateur
14.56363819;0.0004641;98.5874;300.0516;294.9902;65.0812;3.7785E-5;1.19E-6;0;Amateur
14.56364048;0.0004631;98.5874;300.6173;292.7204;67.3503;3.8552E-5;1.22E-6;0;Amateur
14.56364344;0.0004625;98.5875;301.1124;290.9364;69.1338;4.2798E-5;1.41E-6;0;Amateur
14.56364867;0.0004603;98.5875;302.1732;286.9347;73.1345;4.6249E-5;1.56E-6;0;Amateur
14.56365172;0.0004587;98.5876;303.1634;283.1817;76.8868;4.2397E-5;1.39E-6;0;Amateur
14.56365366;0.0004577;98.5877;303.7999;280.8047;79.2634;4.0007E-5;1.29E-6;0;Amateur
14.56365701;0.0004574;98.5877;304.7193;277.2759;82.7917;3.7861E-5;1.19E-6;0;Amateur
14.5636575;0.0004575;98.5877;304.9315;276.5348;83.5328;3.728E-5;1.16E-6;0;Amateur
14.56365968;0.0004576;98.5878;305.7095;273.4813;86.5861;3.4388E-5;1.04E-6;0;Amateur
